KUIPER-00044            
1 64505U 25134F   25228.91670139 -.00833106  00000+0 -71597-1 0  9992
2 64505  51.8934  73.0990 0013067 315.2735 164.1152 14.99676570  9062
KUIPER-00046            
1 64506U 25134G   25228.91670139 -.00769951  00000+0 -47075-1 0  9993
2 64506  51.8785  71.3232 0010665 324.6797 313.4508 15.12468521  9100
KUIPER-00047            
1 64507U 25134H   25227.86623119  .00025788  00000+0  76147-3 0  9998
2 64507  51.8618  73.8818 0010439 316.7634  43.2531 15.34748020  8982
KUIPER-00048            
1 64508U 25134J   25228.83728020  .00013419  00000+0  37657-3 0  9995
2 64508  51.8771  68.4727 0003393 299.5882  60.4767 15.36866236  9600
KUIPER-00049            
1 64509U 25134K   25228.54379098  .00024379  00000+0  69401-3 0  9990
2 64509  51.8727  70.2263 0006540 305.0090  55.0282 15.35960642  9538
KUIPER-00050            
1 64510U 25134L   25228.29279739  .00022296  00000+0  64406-3 0  9991
2 64510  51.8736  71.5459 0007307 296.5749  63.4488 15.35552510  9518
KUIPER-00051            
1 64511U 25134M   25228.91670139  .00033888  00000+0  99707-3 0  9991
2 64511  51.8739  68.3883 0005036 294.6533 352.8253 15.34755896  9521
KUIPER-00052            
1 64512U 25134N   25228.83251999  .00068519  00000+0  10133-2 0  9996
2 64512  51.8755  66.2319 0005030 327.2343  32.8339 15.54661733  9637
