<?xml version="1.0" encoding="UTF-8"?>
<ndm xmlns:xsi="http://www.w3.org/2001/XMLSchema-instance" xsi:noNamespaceSchemaLocation="https://sanaregistry.org/r/ndmxml_unqualified/ndmxml-2.0.0-master-2.0.xsd">
<omm id="CCSDS_OMM_VERS" version="2.0">
<header><CREATION_DATE/><ORIGINATOR/></header><body><segment><metadata><OBJECT_NAME>KUIPER-00044</OBJECT_NAME><OBJECT_ID>2025-134F</OBJECT_ID><CENTER_NAME>EARTH</CENTER_NAME><REF_FRAME>TEME</REF_FRAME><TIME_SYSTEM>UTC</TIME_SYSTEM><MEAN_ELEMENT_THEORY>SGP4</MEAN_ELEMENT_THEORY></metadata><data><meanElements><EPOCH>2025-08-16T22:00:03.000096</EPOCH><MEAN_MOTION>14.99676570</MEAN_MOTION><ECCENTRICITY>.0013067</ECCENTRICITY><INCLINATION>51.8934</INCLINATION><RA_OF_ASC_NODE>73.0990</RA_OF_ASC_NODE><ARG_OF_PERICENTER>315.2735</ARG_OF_PERICENTER><MEAN_ANOMALY>164.1152</MEAN_ANOMALY></meanElements><tleParameters><EPHEMERIS_TYPE>0</EPHEMERIS_TYPE><CLASSIFICATION_TYPE>U</CLASSIFICATION_TYPE><NORAD_CAT_ID>64505</NORAD_CAT_ID><ELEMENT_SET_NO>999</ELEMENT_SET_NO><REV_AT_EPOCH>906</REV_AT_EPOCH><BSTAR>-.71597E-1</BSTAR><MEAN_MOTION_DOT>-.833106E-2</MEAN_MOTION_DOT><MEAN_MOTION_DDOT>0</MEAN_MOTION_DDOT></tleParameters></data></segment></body></omm>
<omm id="CCSDS_OMM_VERS" version="2.0">
<header><CREATION_DATE/><ORIGINATOR/></header><body><segment><metadata><OBJECT_NAME>KUIPER-00046</OBJECT_NAME><OBJECT_ID>2025-134G</OBJECT_ID><CENTER_NAME>EARTH</CENTER_NAME><REF_FRAME>TEME</REF_FRAME><TIME_SYSTEM>UTC</TIME_SYSTEM><MEAN_ELEMENT_THEORY>SGP4</MEAN_ELEMENT_THEORY></metadata><data><meanElements><EPOCH>2025-08-16T22:00:03.000096</EPOCH><MEAN_MOTION>15.12468521</MEAN_MOTION><ECCENTRICITY>.0010665</ECCENTRICITY><INCLINATION>51.8785</INCLINATION><RA_OF_ASC_NODE>71.3232</RA_OF_ASC_NODE><ARG_OF_PERICENTER>324.6797</ARG_OF_PERICENTER><MEAN_ANOMALY>313.4508</MEAN_ANOMALY></meanElements><tleParameters><EPHEMERIS_TYPE>0</EPHEMERIS_TYPE><CLASSIFICATION_TYPE>U</CLASSIFICATION_TYPE><NORAD_CAT_ID>64506</NORAD_CAT_ID><ELEMENT_SET_NO>999</ELEMENT_SET_NO><REV_AT_EPOCH>910</REV_AT_EPOCH><BSTAR>-.47075E-1</BSTAR><MEAN_MOTION_DOT>-.769951E-2</MEAN_MOTION_DOT><MEAN_MOTION_DDOT>0</MEAN_MOTION_DDOT></tleParameters></data></segment></body></omm>
<omm id="CCSDS_OMM_VERS" version="2.0">
<header><CREATION_DATE/><ORIGINATOR/></header><body><segment><metadata><OBJECT_NAME>KUIPER-00047</OBJECT_NAME><OBJECT_ID>2025-134H</OBJECT_ID><CENTER_NAME>EARTH</CENTER_NAME><REF_FRAME>TEME</REF_FRAME><TIME_SYSTEM>UTC</TIME_SYSTEM><MEAN_ELEMENT_THEORY>SGP4</MEAN_ELEMENT_THEORY></metadata><data><meanElements><EPOCH>2025-08-15T20:47:22.374816</EPOCH><MEAN_MOTION>15.34748020</MEAN_MOTION><ECCENTRICITY>.0010439</ECCENTRICITY><INCLINATION>51.8618</INCLINATION><RA_OF_ASC_NODE>73.8818</RA_OF_ASC_NODE><ARG_OF_PERICENTER>316.7634</ARG_OF_PERICENTER><MEAN_ANOMALY>43.2531</MEAN_ANOMALY></meanElements><tleParameters><EPHEMERIS_TYPE>0</EPHEMERIS_TYPE><CLASSIFICATION_TYPE>U</CLASSIFICATION_TYPE><NORAD_CAT_ID>64507</NORAD_CAT_ID><ELEMENT_SET_NO>999</ELEMENT_SET_NO><REV_AT_EPOCH>898</REV_AT_EPOCH><BSTAR>.76147E-3</BSTAR><MEAN_MOTION_DOT>.25788E-3</MEAN_MOTION_DOT><MEAN_MOTION_DDOT>0</MEAN_MOTION_DDOT></tleParameters></data></segment></body></omm>
<omm id="CCSDS_OMM_VERS" version="2.0">
<header><CREATION_DATE/><ORIGINATOR/></header><body><segment><metadata><OBJECT_NAME>KUIPER-00048</OBJECT_NAME><OBJECT_ID>2025-134J</OBJECT_ID><CENTER_NAME>EARTH</CENTER_NAME><REF_FRAME>TEME</REF_FRAME><TIME_SYSTEM>UTC</TIME_SYSTEM><MEAN_ELEMENT_THEORY>SGP4</MEAN_ELEMENT_THEORY></metadata><data><meanElements><EPOCH>2025-08-16T20:05:41.009280</EPOCH><MEAN_MOTION>15.36866236</MEAN_MOTION><ECCENTRICITY>.0003393</ECCENTRICITY><INCLINATION>51.8771</INCLINATION><RA_OF_ASC_NODE>68.4727</RA_OF_ASC_NODE><ARG_OF_PERICENTER>299.5882</ARG_OF_PERICENTER><MEAN_ANOMALY>60.4767</MEAN_ANOMALY></meanElements><tleParameters><EPHEMERIS_TYPE>0</EPHEMERIS_TYPE><CLASSIFICATION_TYPE>U</CLASSIFICATION_TYPE><NORAD_CAT_ID>64508</NORAD_CAT_ID><ELEMENT_SET_NO>999</ELEMENT_SET_NO><REV_AT_EPOCH>960</REV_AT_EPOCH><BSTAR>.37657E-3</BSTAR><MEAN_MOTION_DOT>.13419E-3</MEAN_MOTION_DOT><MEAN_MOTION_DDOT>0</MEAN_MOTION_DDOT></tleParameters></data></segment></body></omm>
<omm id="CCSDS_OMM_VERS" version="2.0">
<header><CREATION_DATE/><ORIGINATOR/></header><body><segment><metadata><OBJECT_NAME>KUIPER-00049</OBJECT_NAME><OBJECT_ID>2025-134K</OBJECT_ID><CENTER_NAME>EARTH</CENTER_NAME><REF_FRAME>TEME</REF_FRAME><TIME_SYSTEM>UTC</TIME_SYSTEM><MEAN_ELEMENT_THEORY>SGP4</MEAN_ELEMENT_THEORY></metadata><data><meanElements><EPOCH>2025-08-16T13:03:03.540672</EPOCH><MEAN_MOTION>15.35960642</MEAN_MOTION><ECCENTRICITY>.000654</ECCENTRICITY><INCLINATION>51.8727</INCLINATION><RA_OF_ASC_NODE>70.2263</RA_OF_ASC_NODE><ARG_OF_PERICENTER>305.0090</ARG_OF_PERICENTER><MEAN_ANOMALY>55.0282</MEAN_ANOMALY></meanElements><tleParameters><EPHEMERIS_TYPE>0</EPHEMERIS_TYPE><CLASSIFICATION_TYPE>U</CLASSIFICATION_TYPE><NORAD_CAT_ID>64509</NORAD_CAT_ID><ELEMENT_SET_NO>999</ELEMENT_SET_NO><REV_AT_EPOCH>953</REV_AT_EPOCH><BSTAR>.69401E-3</BSTAR><MEAN_MOTION_DOT>.24379E-3</MEAN_MOTION_DOT><MEAN_MOTION_DDOT>0</MEAN_MOTION_DDOT></tleParameters></data></segment></body></omm>
<omm id="CCSDS_OMM_VERS" version="2.0">
<header><CREATION_DATE/><ORIGINATOR/></header><body><segment><metadata><OBJECT_NAME>KUIPER-00050</OBJECT_NAME><OBJECT_ID>2025-134L</OBJECT_ID><CENTER_NAME>EARTH</CENTER_NAME><REF_FRAME>TEME</REF_FRAME><TIME_SYSTEM>UTC</TIME_SYSTEM><MEAN_ELEMENT_THEORY>SGP4</MEAN_ELEMENT_THEORY></metadata><data><meanElements><EPOCH>2025-08-16T07:01:37.694496</EPOCH><MEAN_MOTION>15.35552510</MEAN_MOTION><ECCENTRICITY>.0007307</ECCENTRICITY><INCLINATION>51.8736</INCLINATION><RA_OF_ASC_NODE>71.5459</RA_OF_ASC_NODE><ARG_OF_PERICENTER>296.5749</ARG_OF_PERICENTER><MEAN_ANOMALY>63.4488</MEAN_ANOMALY></meanElements><tleParameters><EPHEMERIS_TYPE>0</EPHEMERIS_TYPE><CLASSIFICATION_TYPE>U</CLASSIFICATION_TYPE><NORAD_CAT_ID>64510</NORAD_CAT_ID><ELEMENT_SET_NO>999</ELEMENT_SET_NO><REV_AT_EPOCH>951</REV_AT_EPOCH><BSTAR>.64406E-3</BSTAR><MEAN_MOTION_DOT>.22296E-3</MEAN_MOTION_DOT><MEAN_MOTION_DDOT>0</MEAN_MOTION_DDOT></tleParameters></data></segment></body></omm>
<omm id="CCSDS_OMM_VERS" version="2.0">
<header><CREATION_DATE/><ORIGINATOR/></header><body><segment><metadata><OBJECT_NAME>KUIPER-00051</OBJECT_NAME><OBJECT_ID>2025-134M</OBJECT_ID><CENTER_NAME>EARTH</CENTER_NAME><REF_FRAME>TEME</REF_FRAME><TIME_SYSTEM>UTC</TIME_SYSTEM><MEAN_ELEMENT_THEORY>SGP4</MEAN_ELEMENT_THEORY></metadata><data><meanElements><EPOCH>2025-08-16T22:00:03.000096</EPOCH><MEAN_MOTION>15.34755896</MEAN_MOTION><ECCENTRICITY>.0005036</ECCENTRICITY><INCLINATION>51.8739</INCLINATION><RA_OF_ASC_NODE>68.3883</RA_OF_ASC_NODE><ARG_OF_PERICENTER>294.6533</ARG_OF_PERICENTER><MEAN_ANOMALY>352.8253</MEAN_ANOMALY></meanElements><tleParameters><EPHEMERIS_TYPE>0</EPHEMERIS_TYPE><CLASSIFICATION_TYPE>U</CLASSIFICATION_TYPE><NORAD_CAT_ID>64511</NORAD_CAT_ID><ELEMENT_SET_NO>999</ELEMENT_SET_NO><REV_AT_EPOCH>952</REV_AT_EPOCH><BSTAR>.99707E-3</BSTAR><MEAN_MOTION_DOT>.33888E-3</MEAN_MOTION_DOT><MEAN_MOTION_DDOT>0</MEAN_MOTION_DDOT></tleParameters></data></segment></body></omm>
<omm id="CCSDS_OMM_VERS" version="2.0">
<header><CREATION_DATE/><ORIGINATOR/></header><body><segment><metadata><OBJECT_NAME>KUIPER-00052</OBJECT_NAME><OBJECT_ID>2025-134N</OBJECT_ID><CENTER_NAME>EARTH</CENTER_NAME><REF_FRAME>TEME</REF_FRAME><TIME_SYSTEM>UTC</TIME_SYSTEM><MEAN_ELEMENT_THEORY>SGP4</MEAN_ELEMENT_THEORY></metadata><data><meanElements><EPOCH>2025-08-16T19:58:49.727136</EPOCH><MEAN_MOTION>15.54661733</MEAN_MOTION><ECCENTRICITY>.000503</ECCENTRICITY><INCLINATION>51.8755</INCLINATION><RA_OF_ASC_NODE>66.2319</RA_OF_ASC_NODE><ARG_OF_PERICENTER>327.2343</ARG_OF_PERICENTER><MEAN_ANOMALY>32.8339</MEAN_ANOMALY></meanElements><tleParameters><EPHEMERIS_TYPE>0</EPHEMERIS_TYPE><CLASSIFICATION_TYPE>U</CLASSIFICATION_TYPE><NORAD_CAT_ID>64512</NORAD_CAT_ID><ELEMENT_SET_NO>999</ELEMENT_SET_NO><REV_AT_EPOCH>963</REV_AT_EPOCH><BSTAR>.10133E-2</BSTAR><MEAN_MOTION_DOT>.68519E-3</MEAN_MOTION_DOT><MEAN_MOTION_DDOT>0</MEAN_MOTION_DDOT></tleParameters></data></segment></body></omm>

</ndm>
